BEIDOU 3 (C01)          
1 36287U 10001A   22278.88185016 -.00000296  00000+0  00000+0 0  9992
2 36287   1.7015  47.8726 0000532   0.5733  64.0303  1.00272027 46629
BEIDOU 5 (C06)          
1 36828U 10036A   22277.77779883 -.00000159  00000+0  00000+0 0  9997
2 36828  54.1979 175.2307 0030260 187.1772  38.8272  1.00267238 44673
BEIDOU 6 (C04)          
1 37210U 10057A   22276.87682968 -.00000124  00000+0  00000+0 0  9995
2 37210   0.7505  39.1331 0007169 149.3197 299.7057  1.00270198 43722
BEIDOU 7 (C07)          
1 37256U 10068A   22278.72172284 -.00000176  00000+0  00000+0 0  9995
2 37256  50.0181 288.3248 0024010 205.4063 248.6271  1.00272318 43250
BEIDOU 8 (C08)          
1 37384U 11013A   22277.87873743 -.00000170  00000+0  00000+0 0  9995
2 37384  60.4520  53.1789 0024458 178.4426 206.6720  1.00278736 42128
BEIDOU 9 (C09)          
1 37763U 11038A   22278.71646601 -.00000109  00000+0  00000+0 0  9990
2 37763  54.4793 177.7262 0099021 227.7353 320.4545  1.00258563 41101
BEIDOU 10 (C10)         
1 37948U 11073A   22278.66280520 -.00000129  00000+0  00000+0 0  9994
2 37948  50.1353 287.9736 0086784 220.0596 200.7680  1.00269159 39861
BEIDOU 11 (C05)         
1 38091U 12008A   22278.61336279  .00000041  00000+0  00000+0 0  9993
2 38091   1.8073  69.8461 0010088 340.1689 243.7497  1.00271411 38930
BEIDOU 12 (C11)         
1 38250U 12018A   22278.31759995 -.00000093  00000+0  00000+0 0  9990
2 38250  56.6597 349.9322 0023668 250.8699 178.8888  1.86234431 71136
BEIDOU 13 (C12)         
1 38251U 12018B   22278.07086472 -.00000092  00000+0  00000+0 0  9996
2 38251  56.5754 349.2568 0014241 250.2661  58.2218  1.86234233 71123
BEIDOU 15 (C14)         
1 38775U 12050B   22278.07702289  .00000056  00000+0  00000+0 0  9993
2 38775  55.4636 107.9957 0011792 333.9840 174.4864  1.86231466 68509
BEIDOU 16 (C02)         
1 38953U 12059A   22278.87060131 -.00000192  00000+0  00000+0 0  9993
2 38953   1.1925  81.3318 0023869 295.5341  35.1718  1.00268718 36501
BEIDOU 17 (C31)         
1 40549U 15019A   22278.77509493 -.00000155  00000+0  00000+0 0  9993
2 40549  51.6957 311.4730 0038642 198.5297 239.3048  1.00273567 27548
BEIDOU 18 (C57)         
1 40748U 15037A   22278.38758478 -.00000092  00000+0  00000+0 0  9990
2 40748  55.8246 348.0468 0000934  18.8388  51.2993  1.86233506 48960
BEIDOU 19 (C58)         
1 40749U 15037B   22278.18095678 -.00000091  00000+0  00000+0 0  9994
2 40749  55.8279 348.0433 0003346 295.7636 130.0189  1.86233124 48959
BEIDOU 20 (C18)         
1 40938U 15053A   22278.44146640 -.00000113  00000+0  00000+0 0  9992
2 40938  51.3336 274.6051 0045932 200.4164 154.2576  1.00267351 25802
BEIDOU IGSO-6 (C13)     
1 41434U 16021A   22278.85093656 -.00000141  00000+0  00000+0 0  9994
2 41434  58.2639  51.6944 0045676 215.1622 148.2310  1.00261892 23943
BEIDOU-2 G7 (C03)       
1 41586U 16037A   22278.75120925 -.00000370  00000+0  00000+0 0  9992
2 41586   1.6170  68.2546 0007869 354.7004 332.4666  1.00270755 23243
BEIDOU-3 M1 (C19)       
1 43001U 17069A   22278.08083493  .00000056  00000+0  00000+0 0  9996
2 43001  55.6176 108.0100 0007533 295.3590  12.0318  1.86231779 33433
BEIDOU-3 M2 (C20)       
1 43002U 17069B   22278.57544245  .00000058  00000+0  00000+0 0  9990
2 43002  55.6167 108.0292 0006039 326.8240 355.0403  1.86231355 33433
BEIDOU-3 M3 (C27)       
1 43107U 18003A   22277.97222133 -.00000093  00000+0  00000+0 0  9997
2 43107  55.2770 348.9293 0003652  70.5630  13.1677  1.86232604 32190
BEIDOU-3 M4 (C28)       
1 43108U 18003B   22278.44991970 -.00000094  00000+0  00000+0 0  9994
2 43108  55.2700 348.9018 0003848 238.7617 208.5115  1.86231033 32203
BEIDOU-3 M5 (C21)       
1 43207U 18018A   22277.69026169  .00000054  00000+0  00000+0 0  9990
2 43207  55.5750 108.1341 0004296   8.7848 351.2905  1.86231601 31578
BEIDOU-3 M6 (C22)       
1 43208U 18018B   22277.21999304  .00000051  00000+0  00000+0 0  9996
2 43208  55.5757 108.1544 0005388 311.3702  48.6489  1.86231677 31562
BEIDOU-3 M7 (C29)       
1 43245U 18029A   22278.11144396 -.00000090  00000+0  00000+0 0  9996
2 43245  55.1860 346.6857 0001070 200.0944 247.4965  1.86232823 30736
BEIDOU-3 M8 (C30)       
1 43246U 18029B   22278.03876765 -.00000090  00000+0  10000-3 0  9995
2 43246  55.1830 346.7180 0002887 351.5465  93.9405  1.86233028 30721
BEIDOU IGSO-7 (C16)     
1 43539U 18057A   22278.64094793 -.00000167  00000+0  00000+0 0  9991
2 43539  55.0911 174.7576 0051905 227.5526 317.2479  1.00277123 15612
BEIDOU-3 M9 (C23)       
1 43581U 18062A   22278.42558387 -.00000019  00000+0  00000+0 0  9990
2 43581  54.2497 228.3209 0005512 280.9006 275.2300  1.86232008 28478
BEIDOU-3 M10 (C24)      
1 43582U 18062B   22278.26873031 -.00000016  00000+0  00000+0 0  9996
2 43582  54.2498 228.3149 0005251 346.1780 196.7082  1.86232483 28478
BEIDOU-3 M11 (C25)      
1 43602U 18067A   22278.29141446 -.00000018  00000+0  00000+0 0  9997
2 43602  54.3326 226.9396 0007131   3.4933 235.7480  1.86231607 27968
BEIDOU-3 M12 (C26)      
1 43603U 18067B   22278.33491535 -.00000019  00000+0  00000+0 0  9991
2 43603  54.3294 226.9044 0004426 348.1982 190.5628  1.86231559 27980
BEIDOU-3 M13 (C32)      
1 43622U 18072A   22278.33533315  .00000057  00000+0  00000+0 0  9992
2 43622  55.5432 107.6639 0004339 289.9899 278.0555  1.86231802 27493
BEIDOU-3 M14 (C33)      
1 43623U 18072B   22278.45027855  .00000058  00000+0  00000+0 0  9994
2 43623  55.5453 107.6516 0002894 339.3643  35.9885  1.86231831 27502
BEIDOU-3 M15 (C34)      
1 43647U 18078A   22278.72142792 -.00000092  00000+0  10000-3 0  9998
2 43647  55.0808 346.8143 0005113   2.8173  89.9994  1.86232688 27014
BEIDOU-3 M16 (C35)      
1 43648U 18078B   22278.17132799 -.00000091  00000+0  00000+0 0  9998
2 43648  55.0769 346.8384 0002977  16.7518 334.8248  1.86232349 27018
BEIDOU-3 G1 (C59)       
1 43683U 18085A   22278.48462005 -.00000296  00000+0  00000+0 0  9992
2 43683   1.0174 149.4099 0004459  50.1591 129.0047  1.00266146 14518
BEIDOU-3 M17 (C36)      
1 43706U 18093A   22278.33438928 -.00000017  00000+0  00000+0 0  9999
2 43706  54.3310 228.2176 0010254 279.8386  80.0188  1.86231767 26364
BEIDOU-3 M18 (C37)      
1 43707U 18093B   22278.47525079 -.00000019  00000+0  00000+0 0  9991
2 43707  54.3327 228.2030 0009189 301.7473 243.8801  1.86232351 26371
BEIDOU-3 IGSO-1 (C38)   
1 44204U 19023A   22278.27549512 -.00000205  00000+0  00000+0 0  9991
2 44204  56.7233  51.7954 0023810 188.9593 352.1310  1.00276730 12813
BEIDOU-2 G8             
1 44231U 19027A   22278.88263497 -.00000264  00000+0  00000+0 0  9992
2 44231   1.1234  79.2413 0006386 119.4990 278.0810  1.00269717 12539
BEIDOU-3 IGSO-2 (C39)   
1 44337U 19035A   22278.59102271 -.00000164  00000+0  00000+0 0  9997
2 44337  55.1254 170.7447 0025541 191.0009 345.0154  1.00270867 12154
BEIDOU-3 M23 (C45)      
1 44542U 19061A   22278.27067824 -.00000016  00000+0  00000+0 0  9999
2 44542  54.5578 228.3835 0008889 335.7449  24.1867  1.86231434 20635
BEIDOU-3 M24 (C46)      
1 44543U 19061B   22278.22072021 -.00000015  00000+0  00000+0 0  9999
2 44543  54.5568 228.3541 0006474 318.9330 278.9576  1.86231934 20629
BEIDOU-3 IGSO-3         
1 44709U 19073A   22278.44731657 -.00000148  00000+0  10000-3 0  9999
2 44709  57.0861 295.2417 0027490 182.7640 177.2891  1.00275657 10901
BEIDOU-3 M21            
1 44793U 19078A   22278.30296081 -.00000091  00000+0  10000-3 0  9996
2 44793  54.9299 346.8357 0004934  13.5452 112.4370  1.86232414 19495
BEIDOU-3 M22            
1 44794U 19078B   22277.70466189 -.00000090  00000+0  00000+0 0  9992
2 44794  54.9039 346.8467 0002853   3.7393 352.9621  1.86232855 19470
BEIDOU-3 M19            
1 44864U 19090A   22278.41069384  .00000057  00000+0  00000+0 0  9991
2 44864  55.4788 107.8660 0014928 269.6995  34.7433  1.86231981 19073
BEIDOU-3 M20            
1 44865U 19090B   22278.39608475  .00000057  00000+0  00000+0 0  9999
2 44865  55.4801 107.8983 0013042 285.7704  98.7271  1.86231950 19055
BEIDOU-3 G2             
1 45344U 20017A   22278.53198659 -.00000158  00000+0  00000+0 0  9990
2 45344   2.0136 357.6890 0004042 160.2241 127.8314  1.00270468  9719
BEIDOU-3 G3             
1 45807U 20040A   22278.75111691 -.00000372  00000+0  00000+0 0  9993
2 45807   1.2010 307.0648 0008548 334.8961 113.4274  1.00270683  8543
